stk.v.11.0
    
    # WrittenBy    STK_v11.4.0
    
    BEGIN Ephemeris
        NumberOfEphemerisPoints		 7143
        ScenarioEpoch		 2021-07-01 00:00:00
        InterpolationMethod		 Lagrange
        InterpolationSamplesM1		 7
        CentralBody		 Earth
        CoordinateSystem		 Custom TopoCentric Facility/Launch
    
        EphemerisTimePosVel	
879.8929415277142 523.8392659563593 1640.7130178327734 5386.728212128563 0.9917957429223595 1.3817215540410965 6.004345864238757
880.2874145887585 524.2305063715241 1641.257706381028 5389.101840735961 0.9918145512311085 1.3798929772113826 6.001981066781584
880.6493848669454 524.5895168725671 1641.7568937461463 5391.279141573961 0.9918317341093508 1.378285613655143 6.00631035426305
881.0044669077417 524.9417014910778 1642.2460274610435 5393.415032319435 0.9918485200498137 1.3767704641991347 6.010184574366927
881.3884626175129 525.3225705405093 1642.7743971462062 5395.725310326275 0.9918665953640409 1.3751965924502463 6.01030502929601
881.8063712465183 525.7370842443095 1643.3487582236585 5398.240122708972 0.9918861761415693 1.373555454741919 6.006144428153808
882.1772321803705 526.1049392876536 1643.85789548096 5400.471165536213 0.9919034737487968 1.3721579262967452 6.008175866724398
882.5480931142228 526.472800732343 1644.366524205073 5402.702242462429 0.9919206977604652 1.3708125128087598 6.009850563861853
882.9452871238954 526.8667893417472 1644.9107255754686 5405.092107973755 0.9919390636799252 1.3694261202080897 6.008436983381129
883.3559636266779 527.2741592916814 1645.4728319616736 5407.563412631139 0.9919579654258602 1.3680486167659665 6.004296925208678
883.7475492368378 527.6625992721 1646.008291183675 5409.919591928164 0.9919759061224362 1.366785113598592 6.002594344558834
884.1098005895499 528.0219468812186 1646.5032055107893 5412.098605744234 0.9919924317251319 1.365657335696727 6.006710875113398
884.4680866477856 528.3773668574296 1646.9923072071028 5414.253827995526 0.9920087096152188 1.364578752974112 6.010110796428657
884.8546407313255 528.7608352575601 1647.5195720579502 5416.579529334655 0.9920261977414448 1.36345412108689 6.009968678271604
885.2709985963315 529.1738770739212 1648.0870121761113 5419.085012046879 0.9920449488027413 1.3622857892323927 6.005813583975289
885.6792310945674 529.5788657998669 1648.6429147161773 5421.5417391437595 0.9920632485030098 1.3611812890055384 6.000675084329522
886.0484679204706 529.9451751293278 1649.1453337265625 5423.762897798349 0.9920797277946404 1.3602154993180517 6.003899520723913
886.395605103129 530.2895655710294 1649.6173615106763 5425.850780004373 0.9920951584741102 1.3593349161107542 6.009616362503044
886.7645426438015 530.655589734093 1650.1187028172235 5428.07029186648 0.9921114924346734 1.3584268318283037 6.011192073676476
887.1781859862372 531.0659738218092 1650.6804020273487 5430.559298652943 0.9921297255719301 1.3574412049060938 6.0082463665196935
887.6052037288136 531.4896348207179 1651.2598423745433 5433.129353085556 0.9921484600363505 1.3564579965418282 6.000361577655401
887.947339798116 531.8290871534454 1651.7238043250718 5435.186894929425 0.9921634062669943 1.3556941874272348 6.008336877643142
888.2894758674183 532.1685445900923 1652.1875084607943 5437.244865879641 0.9921782957023154 1.3549507692932068 6.012407167431952
888.6943316947396 532.5702373093112 1652.7358943050856 5439.680822075586 0.9921958417173524 1.3540963079155166 6.010989587506133
889.1471279194209 533.0195042659874 1653.3488134476802 5442.406195724951 0.9922153723966265 1.3531716079182334 6.001069438388475
889.4865279391838 533.3562646580002 1653.8079652840195 5444.447271849405 0.9922299479239123 1.352498952055925 6.00904492050661
889.8259279589467 533.6930299876935 1654.2668916910445 5446.488802242294 0.9922444689723001 1.3518431026601674 6.012921543396767
890.239026693083 534.1029285600378 1654.8251751764326 5448.974402747946 0.9922620701137946 1.3510666185187317 6.0110549035300815
890.6533132258378 534.5140130152662 1655.384746564746 5451.467299294257 0.992279641810411 1.3503109161509987 6.007940133331001
891.0675997585926 534.9251047336995 1655.944009474999 5453.960448191585 0.9922971338823844 1.349577253941206 6.002741181847355
891.4535009798179 535.3080365418106 1656.4646842117363 5456.282308590286 0.9923133563117761 1.3489128499556478 6.002124245512567
891.8077029736233 535.6595185391659 1656.9423661447456 5458.412729078625 0.9923281861511827 1.3483185056526554 6.00764347135216
892.1651315106327 536.0142076079092 1657.424188978047 5460.562874072021 0.9923430379422974 1.347735358760734 5.997911682177503
892.4895954357793 536.3361893047094 1657.8613962850552 5462.512454887049 0.9923564652783855 1.3472182413970057 6.006637146583966
892.8578465840284 536.7016285098503 1658.3574049242416 5464.72612387071 0.9923716477261928 1.3466447467594371 6.007987181607762
893.2997197078433 537.1401348804222 1658.9523022978187 5467.38310940345 0.9923897860811373 1.3459747200367627 6.003162569633874
893.6789487808323 537.5164808797323 1659.4626284491019 5469.662832131481 0.9924052843329318 1.3454148448038226 6.004117053060138
894.0581778538213 537.8928327444728 1659.972744849488 5471.942561201851 0.992420719588431 1.3448684417102508 6.004989116224642
894.4627133170414 538.2943054388086 1660.5166763382365 5474.374782667346 0.9924371158457996 1.3442998861638427 6.002803720283527
894.8722625434162 538.7007606786815 1661.0671179273213 5476.837370163878 0.9924536432099726 1.343738776109599 5.998766235755307
895.257378448477 539.0829733437047 1661.584513578341 5479.152610301939 0.9924691188026455 1.3432239562397237 5.998811889803342
895.618015862617 539.4408974447991 1662.0688451106812 5481.320178848785 0.9924835533065619 1.342752727439695 6.003173224193387
895.9839835734092 539.8041170505203 1662.560163337807 5483.520001658001 0.9924981446990081 1.3422849224625863 6.005612111620423
896.3815846834324 540.1987385555284 1663.0937581649391 5485.910408197612 0.9925139332643798 1.3417881483473353 6.004496123156544
896.8009314916429 540.6149495845494 1663.6563250643546 5488.431988710944 0.9925305134919586 1.341276697251339 5.999610192634465
897.2014301170092 541.012459850308 1664.1934086669637 5490.840103624739 0.9925462800738565 1.3407997870957458 5.996233124451095
897.5641029624179 541.372432014177 1664.6796034681208 5493.019870445256 0.9925605002359894 1.3403773293947492 6.001034750522708
897.9158867501998 541.7216011250547 1665.1510556265857 5495.134173001853 0.9925742417020121 1.3399758311804906 6.005642688567674
898.2984120630911 542.1012887462407 1665.6635482198872 5497.433765177961 0.9925891265050458 1.3395482119394688 6.006077067615738
898.7213765184007 542.5211221340305 1666.2300313483283 5499.977014752941 0.9926055155586395 1.3390859121659064 6.001827877987164
899.0957750068596 542.8927548448947 1666.731307898325 5502.227610095801 0.9926199624119799 1.3386856204439437 6.003562916704022
899.4701734953186 543.2643929540818 1667.2324361067806 5504.478230036004 0.9926343529247866 1.3382934446433354 6.005033530733626
899.8698625796447 543.6611411295708 1667.767255160781 5506.881237352179 0.9926496537092558 1.3378834586234936 6.003520309731915
900.2809853199088 544.0692451992381 1668.317204338887 5509.353272579487 0.9926653260122233 1.3374708038859244 5.999560033595058
900.672634798718 544.4580249702815 1668.8409484629033 5511.7079445191985 0.9926801939469598 1.3370859703474085 5.998267386606213
901.036804830249 544.8195318568362 1669.3278110237777 5513.8967976603135 0.9926939647176656 1.3367351631240694 6.002256599328603
901.3988865794404 545.1789706950249 1669.81175627035 5516.07318349175 0.992707605248564 1.3363928860514065 6.005360174857778
901.7889929982208 545.5662351611801 1670.333020927188 5518.418441089719 0.9927222446534397 1.33603118411589 6.005039646930505
902.2064168652851 545.9806243776119 1670.8906328180915 5520.928373585513 0.9927378442365711 1.3356520325876697 6.000891274133551
902.6139322348228 546.385183399181 1671.4348574293558 5523.378805224159 0.9927530091511914 1.3352895004578367 5.996314873813544
902.9839059551172 546.7524784616596 1671.9288195554427 5525.602631861688 0.9927667222761631 1.3349666929320467 5.999700293478559
903.3345751012763 547.1006133923954 1672.3968983357172 5527.710157942879 0.9927796720541774 1.3346661335937349 6.004989802406637
903.7080989336084 547.4714428284374 1672.8953690266392 5529.955533102122 0.9927934149249363 1.3343516169651293 6.006307435863469
904.1241627234572 547.884511393198 1673.4504726803902 5532.457163617359 0.9928086614852176 1.3340079323925527 6.003201354574828
904.5502110562194 548.3074991821812 1674.0187508189442 5535.0193376006 0.992824207217907 1.3336630545259858 5.995724333459737
904.8948623701392 548.6496795096041 1674.4783522123582 5537.090402135903 0.9928367338297489 1.3333891422944808 6.003551109162645
905.239513684059 548.9918641468101 1674.9378599666177 5539.161882719947 0.9928492167829843 1.3331196516667747 6.007603313473615
905.6453296813536 549.3947812150174 1675.4787977829321 5541.601699277552 0.9928638594058528 1.3328078592697556 6.006237264580705
906.0983414815133 549.8445639484391 1676.0824979194012 5544.326200550711 0.9928801342717993 1.3324666680606145 5.996676665043817
906.4409821748491 550.1847671877182 1676.5390116986687 5546.385196486547 0.9928923947313338 1.3322132810622571 6.00430053172679
906.7836228681848 550.5249746207018 1676.9954393322103 5548.44461695838 0.992904613038258 1.3319638185665217 6.008104412266879
907.1979439147703 550.9363589503134 1677.5472383538813 5550.935620481538 0.992919331419629 1.3316672813974662 6.006244227574624
907.6131300639842 551.3486083552403 1678.1000674253303 5553.431966091017 0.9929340194062529 1.3313755935786837 6.003214623145871
908.028316213198 551.7608638457789 1678.6527765024443 5555.928548319542 0.9929486465821342 1.331089230198437 5.9982450485344865
908.4161222880823 552.1459380032974 1679.1689298907838 5558.260039834979 0.99296225455231 1.3308264331057107 5.9976463032380645
